[{"OBJECT_NAME":"STARLINK-3161","OBJECT_ID":"2021-104Q","EPOCH":"2026-03-09T17:27:48.361248","MEAN_MOTION":15.08835383,"ECCENTRICITY":0.00012192,"INCLINATION":53.2168,"RA_OF_ASC_NODE":229.2684,"ARG_OF_PERICENTER":97.5289,"MEAN_ANOMALY":262.5841,"EPHEMERIS_TYPE":0,"CLASSIFICATION_TYPE":"U","NORAD_CAT_ID":49422,"ELEMENT_SET_NO":999,"REV_AT_EPOCH":23862,"BSTAR":1.2726605e-5,"MEAN_MOTION_DOT":-8.5e-7,"MEAN_MOTION_DDOT":0},{"OBJECT_NAME":"FENGYUN 1C DEB","OBJECT_ID":"1999-025ARC","EPOCH":"2026-03-09T09:52:34.584960","MEAN_MOTION":14.8862073,"ECCENTRICITY":0.01277475,"INCLINATION":99.058,"RA_OF_ASC_NODE":51.7347,"ARG_OF_PERICENTER":19.4756,"MEAN_ANOMALY":341.1273,"EPHEMERIS_TYPE":0,"CLASSIFICATION_TYPE":"U","NORAD_CAT_ID":30694,"ELEMENT_SET_NO":999,"REV_AT_EPOCH":1384,"BSTAR":0.0015651053,"MEAN_MOTION_DOT":0.00016942,"MEAN_MOTION_DDOT":0}]
